[{"OBJECT_NAME":"STARLINK-1799","OBJECT_ID":"2020-073AF","EPOCH":"2026-03-10T00:00:02.999808","MEAN_MOTION":15.76402839,"ECCENTRICITY":0.0005505,"INCLINATION":53.0426,"RA_OF_ASC_NODE":193.868,"ARG_OF_PERICENTER":242.728,"MEAN_ANOMALY":274.3296,"EPHEMERIS_TYPE":0,"CLASSIFICATION_TYPE":"U","NORAD_CAT_ID":46699,"ELEMENT_SET_NO":999,"REV_AT_EPOCH":586,"BSTAR":0.00068876856,"MEAN_MOTION_DOT":0.00112035,"MEAN_MOTION_DDOT":0},{"OBJECT_NAME":"STARLINK-36350","OBJECT_ID":"2026-016M","EPOCH":"2026-03-09T17:03:04.122432","MEAN_MOTION":15.75185392,"ECCENTRICITY":0.00010769,"INCLINATION":97.2855,"RA_OF_ASC_NODE":129.1513,"ARG_OF_PERICENTER":79.5922,"MEAN_ANOMALY":280.5465,"EPHEMERIS_TYPE":0,"CLASSIFICATION_TYPE":"U","NORAD_CAT_ID":67572,"ELEMENT_SET_NO":999,"REV_AT_EPOCH":680,"BSTAR":0.0016274442,"MEAN_MOTION_DOT":0.00249802,"MEAN_MOTION_DDOT":0}]
